NORAD_CAT_ID,OBJECT_NAME,OBJECT_TYPE,EPOCH,MEAN_MOTION,ECCENTRICITY,INCLINATION,RA_OF_ASC_NODE,ARG_OF_PERICENTER,MEAN_ANOMALY,BSTAR,MEAN_MOTION_DOT,MEAN_MOTION_DDOT,TLE_LINE0,TLE_LINE1,TLE_LINE2,SEMIMAJOR_AXIS,PERIOD,APOGEE,PERIGEE,DECAYED
54168.0,STARLINK-5245,PAYLOAD,2024-05-27 22:18:26,15.08830376,0.0001882,53.2179,45.5832,93.9917,266.129,0.00069946,0.00010858,0.0,0 STARLINK-5245,1 54168U 22141M   24148.92946798  .00010858  00000-0  69946-3 0  9996,2 54168  53.2179  45.5832 0001882  93.9917 266.1290 15.08830376 87616,6917.91,95.438,541.077,538.473,0.0
54168.0,STARLINK-5245,PAYLOAD,2024-05-27 23:53:48,15.08841671,0.0001701,53.2179,45.2854,96.7051,263.4134,0.00016111,2.277e-05,0.0,0 STARLINK-5245,1 54168U 22141M   24148.99569981  .00002277  00000-0  16111-3 0  9990,2 54168  53.2179  45.2854 0001701  96.7051 263.4134 15.08841671 87625,6917.875,95.437,540.917,538.564,0.0
54168.0,STARLINK-5245,PAYLOAD,2024-05-28 22:09:12,15.08843767,0.0001593,53.2173,41.1208,101.6306,258.4865,-8.605e-05,-1.657e-05,0.0,0 STARLINK-5245,1 54168U 22141M   24149.92305655 -.00001657  00000-0 -86050-4 0  9993,2 54168  53.2173  41.1208 0001593 101.6306 258.4865 15.08843767 87763,6917.869,95.437,540.836,538.632,0.0
54168.0,STARLINK-5245,PAYLOAD,2024-05-29 02:55:23,15.0879662,0.0002006,53.2184,40.2302,102.8727,257.2489,0.0006904,0.00010704,0.0,0 STARLINK-5245,1 54168U 22141M   24150.12179603  .00010704  00000-0  69040-3 0  9999,2 54168  53.2184  40.2302 0002006 102.8727 257.2489 15.08796620 87797,6918.013,95.44,541.266,538.49,0.0
54168.0,STARLINK-5245,PAYLOAD,2024-05-29 20:24:36,15.08843643,0.0001667,53.2181,36.9643,110.4659,249.6512,6.5448e-05,7.54e-06,0.0,0 STARLINK-5245,1 54168U 22141M   24150.85041814  .00000754  00000-0  65448-4 0  9994,2 54168  53.2181  36.9643 0001667 110.4659 249.6512 15.08843643 87908,6917.869,95.437,540.887,538.581,0.0
54168.0,STARLINK-5245,PAYLOAD,2024-05-29 21:59:59,15.08839111,0.0001519,53.219,36.6708,100.126,259.9904,7.7092e-05,9.39e-06,0.0,0 STARLINK-5245,1 54168U 22141M   24150.91666186  .00000939  00000-0  77092-4 0  9999,2 54168  53.2190  36.6708 0001519 100.1260 259.9904 15.08839111 87912,6917.883,95.438,540.799,538.697,0.0
54168.0,STARLINK-5245,PAYLOAD,2024-05-29 23:35:22,15.08839345,0.0001475,53.2186,36.373,103.9071,256.2086,0.00011281,1.508e-05,0.0,0 STARLINK-5245,1 54168U 22141M   24150.98290066  .00001508  00000-0  11281-3 0  9996,2 54168  53.2186  36.3730 0001475 103.9071 256.2086 15.08839345 87922,6917.882,95.438,540.768,538.727,0.0
54168.0,STARLINK-5245,PAYLOAD,2024-05-30 21:50:45,15.08851694,0.0001396,53.2188,32.2102,98.6183,261.4967,0.00012947,1.774e-05,0.0,0 STARLINK-5245,1 54168U 22141M   24151.91025372  .00001774  00000-0  12947-3 0  9991,2 54168  53.2188  32.2102 0001396  98.6183 261.4967 15.08851694 88061,6917.845,95.437,540.675,538.744,0.0
54168.0,STARLINK-5245,PAYLOAD,2024-05-31 01:01:32,15.08855248,0.000148,53.2179,31.6148,98.9594,261.1566,0.00024423,3.603e-05,0.0,0 STARLINK-5245,1 54168U 22141M   24152.04273151  .00003603  00000-0  24423-3 0  9991,2 54168  53.2179  31.6148 0001480  98.9594 261.1566 15.08855248 88080,6917.834,95.437,540.723,538.675,0.0
54168.0,STARLINK-5245,PAYLOAD,2024-05-31 20:06:10,15.0883591,0.0001272,53.2189,28.0413,73.98,286.1332,0.00019579,2.829e-05,0.0,0 STARLINK-5245,1 54168U 22141M   24152.83762008  .00002829  00000-0  19579-3 0  9997,2 54168  53.2189  28.0413 0001272  73.9800 286.1332 15.08835910 88204,6917.893,95.438,540.638,538.878,0.0
54168.0,STARLINK-5245,PAYLOAD,2024-05-31 21:41:33,15.08830825,0.0001692,53.2192,27.743,89.1722,270.9464,0.00037964,5.758e-05,0.0,0 STARLINK-5245,1 54168U 22141M   24152.90386361  .00005758  00000-0  37964-3 0  9991,2 54168  53.2192  27.7430 0001692  89.1722 270.9464 15.08830825 88219,6917.908,95.438,540.944,538.603,0.0
54168.0,STARLINK-5245,PAYLOAD,2024-05-31 23:16:56,15.08851108,0.000202,53.2194,27.4483,90.44,269.6824,-2.3111e-05,-6.56e-06,0.0,0 STARLINK-5245,1 54168U 22141M   24152.97009616 -.00000656  00000-0 -23111-4 0  9997,2 54168  53.2194  27.4483 0002020  90.4400 269.6824 15.08851108 88223,6917.846,95.437,541.109,538.314,0.0
54168.0,STARLINK-5245,PAYLOAD,2024-06-01 08:49:15,15.08842985,0.0001376,53.2181,25.6666,88.8931,271.2219,2.0164e-05,3.3e-07,0.0,0 STARLINK-5245,1 54168U 22141M   24153.36753887  .00000033  00000-0  20164-4 0  9999,2 54168  53.2181  25.6666 0001376  88.8931 271.2219 15.08842985 88281,6917.871,95.437,540.688,538.784,0.0
54168.0,STARLINK-5245,PAYLOAD,2024-06-01 15:10:48,15.08840682,0.0001493,53.2164,24.4774,90.3651,269.7512,7.7992e-06,-1.64e-06,0.0,0 STARLINK-5245,1 54168U 22141M   24153.63250038 -.00000164  00000-0  77992-5 0  9997,2 54168  53.2164  24.4774 0001493  90.3651 269.7512 15.08840682 88321,6917.878,95.438,540.776,538.71,0.0
54168.0,STARLINK-5245,PAYLOAD,2024-06-01 21:32:20,15.08837723,0.0001421,53.2162,23.2856,91.9152,268.2003,-1.1626e-05,-4.73e-06,0.0,0 STARLINK-5245,1 54168U 22141M   24153.89746271 -.00000473  00000-0 -11626-4 0  9999,2 54168  53.2162  23.2856 0001421  91.9152 268.2003 15.08837723 88366,6917.887,95.438,540.735,538.769,0.0
54168.0,STARLINK-5245,PAYLOAD,2024-06-02 08:40:02,15.08841791,0.0001296,53.2175,21.2038,94.744,265.37,-2.6939e-05,-7.17e-06,0.0,0 STARLINK-5245,1 54168U 22141M   24154.36114005 -.00000717  00000-0 -26939-4 0  9990,2 54168  53.2175  21.2038 0001296  94.7440 265.3700 15.08841791 88431,6917.875,95.437,540.636,538.843,0.0
54168.0,STARLINK-5245,PAYLOAD,2024-06-02 21:23:07,15.08843474,0.0001356,53.2171,18.8245,103.7118,256.4025,2.0631e-05,4e-07,0.0,0 STARLINK-5245,1 54168U 22141M   24154.89106007  .00000040  00000-0  20631-4 0  9991,2 54168  53.2171  18.8245 0001356 103.7118 256.4025 15.08843474 88519,6917.87,95.437,540.673,538.797,0.0
54168.0,STARLINK-5245,PAYLOAD,2024-06-03 00:33:53,15.08847386,0.0001338,53.2168,18.2295,101.469,258.6453,5.1657e-05,5.34e-06,0.0,0 STARLINK-5245,1 54168U 22141M   24155.02353671  .00000534  00000-0  51657-4 0  9998,2 54168  53.2168  18.2295 0001338 101.4690 258.6453 15.08847386 88531,6917.858,95.437,540.648,538.797,0.0
54168.0,STARLINK-5245,PAYLOAD,2024-06-03 14:52:22,15.0883454,0.0001387,53.2181,15.5536,98.405,261.71,0.00017413,2.484e-05,0.0,0 STARLINK-5245,1 54168U 22141M   24155.61970436  .00002484  00000-0  17413-3 0  9994,2 54168  53.2181  15.5536 0001387  98.4050 261.7100 15.08834540 88625,6917.897,95.438,540.722,538.803,0.0
54168.0,STARLINK-5245,PAYLOAD,2024-06-03 21:13:54,15.08842442,0.0001508,53.2169,14.3636,100.4243,259.6919,0.00021043,3.063e-05,0.0,0 STARLINK-5245,1 54168U 22141M   24155.88465928  .00003063  00000-0  21043-3 0  9996,2 54168  53.2169  14.3636 0001508 100.4243 259.6919 15.08842442 88660,6917.873,95.437,540.781,538.695,0.0
54168.0,STARLINK-5245,PAYLOAD,2024-06-05 06:36:59,15.08848359,2.08e-05,53.2166,8.1165,71.3451,288.7564,0.00011673,1.571e-05,0.0,0 STARLINK-5245,1 54168U 22141M   24157.27569390  .00001571  00000-0  11673-3 0  9999,2 54168  53.2166   8.1165 0000208  71.3451 288.7564 15.08848359 88873,6917.855,95.437,539.864,539.576,0.0
54168.0,STARLINK-5245,PAYLOAD,2024-06-05 20:55:29,15.08835094,0.0001382,53.2172,5.4411,86.7547,273.3603,-6.204e-05,-1.275e-05,0.0,0 STARLINK-5245,1 54168U 22141M   24157.87186422 -.00001275  00000-0 -62040-4 0  9994,2 54168  53.2172   5.4411 0001382  86.7547 273.3603 15.08835094 88960,6917.895,95.438,540.716,538.804,0.0
54168.0,STARLINK-5245,PAYLOAD,2024-06-06 06:27:47,15.08839761,0.0001578,53.2172,3.6603,95.7585,264.3587,2.744e-05,1.49e-06,0.0,0 STARLINK-5245,1 54168U 22141M   24158.26930437  .00000149  00000-0  27440-4 0  9993,2 54168  53.2172   3.6603 0001578  95.7585 264.3587 15.08839761 89026,6917.881,95.438,540.838,538.654,0.0
54168.0,STARLINK-5245,PAYLOAD,2024-06-06 22:21:39,15.0884159,0.0001573,53.2173,0.6869,95.0153,265.1019,6.4194e-05,7.34e-06,0.0,0 STARLINK-5245,1 54168U 22141M   24158.93170577  .00000734  00000-0  64194-4 0  9995,2 54168  53.2173   0.6869 0001573  95.0153 265.1019 15.08841590 89120,6917.876,95.437,540.829,538.652,0.0
54168.0,STARLINK-5245,PAYLOAD,2024-06-07 22:12:26,15.08838396,0.000165,53.225,356.2254,76.2863,283.8313,9.1532e-05,1.169e-05,0.0,0 STARLINK-5245,1 54168U 22141M   24159.92531090  .00001169  00000-0  91532-4 0  9995,2 54168  53.2250 356.2254 0001650  76.2863 283.8313 15.08838396 89279,6917.885,95.438,540.892,538.609,0.0
54168.0,STARLINK-5245,PAYLOAD,2024-06-08 06:09:22,15.08839437,0.0001531,53.2243,354.7402,82.0106,278.106,8.3424e-05,1.04e-05,0.0,0 STARLINK-5245,1 54168U 22141M   24160.25651066  .00001040  00000-0  83424-4 0  9998,2 54168  53.2243 354.7402 0001531  82.0106 278.1060 15.08839437 89321,6917.882,95.438,540.806,538.688,0.0
54168.0,STARLINK-5245,PAYLOAD,2024-06-08 20:27:50,15.08847337,0.0001632,53.2142,352.0662,82.032,278.0858,0.00013676,1.89e-05,0.0,0 STARLINK-5245,1 54168U 22141M   24160.85266366  .00001890  00000-0  13676-3 0  9993,2 54168  53.2142 352.0662 0001632  82.0320 278.0858 15.08847337 89410,6917.858,95.437,540.852,538.594,0.0
54168.0,STARLINK-5245,PAYLOAD,2024-06-09 06:00:09,15.0884283,8.26e-05,53.2266,350.2785,74.4278,285.6806,7.4081e-05,8.92e-06,0.0,0 STARLINK-5245,1 54168U 22141M   24161.25010486  .00000892  00000-0  74081-4 0  9997,2 54168  53.2266 350.2785 0000826  74.4278 285.6806 15.08842830 89470,6917.872,95.437,540.308,539.165,0.0
54168.0,STARLINK-5245,PAYLOAD,2024-06-09 18:43:15,15.0883682,0.0002488,53.2099,347.9013,84.1516,275.976,5.6205e-05,6.06e-06,0.0,0 STARLINK-5245,1 54168U 22141M   24161.78003634  .00000606  00000-0  56205-4 0  9993,2 54168  53.2099 347.9013 0002488  84.1516 275.9760 15.08836820 89552,6917.89,95.438,541.476,538.034,0.0
54168.0,STARLINK-5245,PAYLOAD,2024-06-09 20:18:38,15.08811102,0.0001793,53.216,347.6049,82.1403,277.9792,0.00019985,2.892e-05,0.0,0 STARLINK-5245,1 54168U 22141M   24161.84628465  .00002892  00000-0  19985-3 0  9997,2 54168  53.2160 347.6049 0001793  82.1403 277.9792 15.08811102 89562,6917.969,95.439,541.074,538.593,0.0
